[{"OBJECT_NAME":"QIANFAN-71","OBJECT_ID":"2025-016S","EPOCH":"2026-03-09T21:11:40.299648","MEAN_MOTION":13.50996794,"ECCENTRICITY":0.00179065,"INCLINATION":88.9678,"RA_OF_ASC_NODE":94.0594,"ARG_OF_PERICENTER":96.7251,"MEAN_ANOMALY":263.5939,"EPHEMERIS_TYPE":0,"CLASSIFICATION_TYPE":"U","NORAD_CAT_ID":62801,"ELEMENT_SET_NO":999,"REV_AT_EPOCH":5900,"BSTAR":3.9490459e-5,"MEAN_MOTION_DOT":3.8e-7,"MEAN_MOTION_DDOT":0},{"OBJECT_NAME":"THOR ABLESTAR DEB","OBJECT_ID":"1961-015FD","EPOCH":"2026-03-09T21:03:26.311104","MEAN_MOTION":13.57180017,"ECCENTRICITY":0.02443563,"INCLINATION":66.5598,"RA_OF_ASC_NODE":319.5337,"ARG_OF_PERICENTER":19.4519,"MEAN_ANOMALY":341.5667,"EPHEMERIS_TYPE":0,"CLASSIFICATION_TYPE":"U","NORAD_CAT_ID":467,"ELEMENT_SET_NO":999,"REV_AT_EPOCH":26746,"BSTAR":0.0034156246,"MEAN_MOTION_DOT":2.887e-5,"MEAN_MOTION_DDOT":0}]
